{
    "links": {
        "self": "http://www.neowsapp.com/rest/v1/neo/3617156?api_key=iIulBulltgU6a56xZRHN4H3l9WmuAYTsLGpBGhQ2"
    },
    "id": "3617156",
    "neo_reference_id": "3617156",
    "name": "(2012 VD37)",
    "designation": "2012 VD37",
    "nasa_jpl_url": "http://ssd.jpl.nasa.gov/sbdb.cgi?sstr=3617156",
    "absolute_magnitude_h": 25.7,
    "estimated_diameter": {
        "kilometers": {
            "estimated_diameter_min": 0.0192555078,
            "estimated_diameter_max": 0.0430566244
        },
        "meters": {
            "estimated_diameter_min": 19.2555078188,
            "estimated_diameter_max": 43.0566244241
        },
        "miles": {
            "estimated_diameter_min": 0.0119648141,
            "estimated_diameter_max": 0.0267541378
        },
        "feet": {
            "estimated_diameter_min": 63.1742402722,
            "estimated_diameter_max": 141.2618956756
        }
    },
    "is_potentially_hazardous_asteroid": false,
    "close_approach_data": [
        {
            "close_approach_date": "2012-11-09",
            "close_approach_date_full": "2012-Nov-09 12:38",
            "epoch_date_close_approach": 1352464680000,
            "relative_velocity": {
                "kilometers_per_second": "11.3496275183",
                "kilometers_per_hour": "40858.6590660532",
                "miles_per_hour": "25387.9817957929"
            },
            "miss_distance": {
                "astronomical": "0.10393418",
                "lunar": "40.43039602",
                "kilometers": "15548331.9481966",
                "miles": "9661285.47284908"
            },
            "orbiting_body": "Earth"
        }
    ],
    "orbital_data": {
        "orbit_id": "4",
        "orbit_determination_date": "2017-04-06 08:48:05",
        "first_observation_date": "2012-11-07",
        "last_observation_date": "2012-11-07",
        "data_arc_in_days": null,
        "observations_used": 18,
        "orbit_uncertainty": "9",
        "minimum_orbit_intersection": ".10297",
        "jupiter_tisserand_invariant": "4.960",
        "epoch_osculation": "2456238.5",
        "eccentricity": ".1651281857481855",
        "semi_major_axis": "1.285725336526937",
        "inclination": "21.45573873333786",
        "ascending_node_longitude": "225.0428130200793",
        "orbital_period": "532.5013708898717",
        "perihelion_distance": "1.073415844335769",
        "perihelion_argument": "210.8793026356918",
        "aphelion_distance": "1.498034828718106",
        "perihelion_time": "2456271.826682224961",
        "mean_anomaly": "337.4693432602125",
        "mean_motion": ".6760545975654449",
        "equinox": "J2000",
        "orbit_class": {
            "orbit_class_type": "AMO",
            "orbit_class_description": "Near-Earth asteroid orbits similar to that of 1221 Amor",
            "orbit_class_range": "1.017 AU < q (perihelion) < 1.3 AU"
        }
    },
    "is_sentry_object": false
}